OBJECT_NAME,OBJECT_ID,EPOCH,MEAN_MOTION,ECCENTRICITY,INCLINATION,RA_OF_ASC_NODE,ARG_OF_PERICENTER,MEAN_ANOMALY,EPHEMERIS_TYPE,CLASSIFICATION_TYPE,NORAD_CAT_ID,ELEMENT_SET_NO,REV_AT_EPOCH,BSTAR,MEAN_MOTION_DOT,MEAN_MOTION_DDOT
ARCTIC WEATHER SATELLITE,2024-149CD,2026-06-19T16:56:33.823392,14.89785632,.0003628,97.6804,241.0997,99.2984,260.8644,0,U,60543,999,9967,.63237E-4,.553E-5,0
CAPELLA-15 (ACADIA-5),2024-149CE,2026-06-19T04:47:48.790464,14.92414825,.00047795,97.6778,243.0545,76.1249,284.0502,0,U,60544,999,10015,.30889741E-3,.3109E-4,0
HAWK-10B,2024-149CF,2026-06-19T17:02:47.410080,14.96523008,.0006829,97.6819,245.9310,85.8605,274.3397,0,U,60545,999,10036,.85905E-4,.919E-5,0
ICEYE-X39,2024-149CG,2026-06-19T11:29:12.939072,14.99907357,.00055602,97.6758,247.4710,112.6586,247.5226,0,U,60546,999,10046,.20880955E-3,.2532E-4,0
UMBRA-10,2024-149CH,2026-06-19T12:08:25.884960,15.18099205,.00004366,97.6975,257.7790,89.5116,270.6167,0,U,60547,999,10108,.66527756E-3,.13509E-3,0
ICEYE-X33,2024-149CJ,2026-06-19T16:51:41.209056,15.00883590,.000186,97.7287,249.8293,88.6295,271.5142,0,U,60548,999,10058,.3015E-3,.3777E-4,0
ICEYE-X40,2024-149CK,2026-06-19T16:58:36.424128,14.97951623,.0006472,97.6821,247.1627,74.8363,285.3575,0,U,60549,999,10045,.14092E-3,.1604E-4,0
SATELIOT_1,2024-149CL,2026-06-19T16:45:36.398016,14.98080488,.0008402,97.6759,246.5544,73.2660,286.9484,0,U,60550,999,10044,.19172E-3,.2211E-4,0
BRO-14,2024-149CM,2026-06-19T16:04:33.068352,14.96178768,.0008066,97.6871,246.4029,90.6589,269.5556,0,U,60551,999,10036,.66314E-4,.69E-5,0
SATELIOT_3,2024-149CN,2026-06-19T11:22:11.681184,14.98060231,.0005928,97.6815,247.1273,81.3664,278.8230,0,U,60552,999,10042,.13948259E-3,.1592E-4,0
BRO-15,2024-149CP,2026-06-19T17:15:36.186048,14.96168721,.0009311,97.6803,246.0506,80.7782,279.4492,0,U,60553,999,10038,.11372E-3,.1225E-4,0
UM5-RIBAT,2024-149CQ,2026-06-19T16:07:35.469984,15.01086604,.0003341,97.6630,248.4391,57.8457,302.3091,0,U,60554,999,10056,.18096E-3,.2256E-4,0
UM5-EOSAT,2024-149CR,2026-06-19T02:30:24.957792,15.01544957,.00088674,97.6714,248.8179,108.2132,252.0058,0,U,60555,999,10050,.28841057E-3,.3677E-4,0
LASARSAT,2024-247Q,2026-06-19T11:53:29.592096,15.46491567,.00079381,44.9733,249.2437,344.7299,15.3350,0,U,62391,999,8367,.57165975E-3,.2878E-3,0
CROCUBE,2024-247T,2026-06-19T11:46:17.971392,15.48397693,.00077409,44.9701,246.5654,349.0739,10.9982,0,U,62394,999,8370,.60621754E-3,.32668E-3,0
TEVEL2-4,2025-052D,2026-06-19T15:50:19.051008,15.34683062,.0004935,97.3895,67.0555,98.3582,261.8220,0,U,63213,999,7049,.47105E-3,.15774E-3,0
TEVEL2-5,2025-052E,2026-06-19T16:20:14.419680,15.34509052,.0004894,97.3892,67.0230,99.9243,260.2552,0,U,63214,999,7049,.44561E-3,.14833E-3,0
TEVEL2-6,2025-052F,2026-06-19T16:38:04.756704,15.34473954,.0004758,97.3899,67.0201,100.3374,259.8406,0,U,63215,999,7049,.44292E-3,.14726E-3,0
TEVEL2-1,2025-052H,2026-06-19T15:47:11.844672,15.33935464,.0004839,97.3870,66.6064,108.6625,251.5144,0,U,63217,999,7047,.44898E-3,.14677E-3,0
TEVEL2-3,2025-052J,2026-06-19T15:39:21.266208,15.33991826,.0004839,97.3873,66.6229,109.1056,251.0711,0,U,63218,999,7047,.4551E-3,.14905E-3,0
TEVEL2-2,2025-052K,2026-06-19T15:47:37.725792,15.33944539,.0004844,97.3874,66.6088,109.6610,250.5156,0,U,63219,999,7047,.44945E-3,.14696E-3,0
TEVEL2-9,2025-052AD,2026-06-19T16:53:46.470048,15.31960885,.0007998,97.3933,66.0247,123.7916,236.4088,0,U,63237,999,7041,.42841E-3,.13163E-3,0
TEVEL2-7,2025-052AE,2026-06-19T16:19:18.221664,15.31663206,.0008059,97.3935,65.9159,124.2734,235.9272,0,U,63238,999,7040,.41965E-3,.12773E-3,0
TEVEL2-8,2025-052AF,2026-06-19T16:31:13.361376,15.31647647,.0008075,97.3937,65.9009,124.5955,235.6049,0,U,63239,999,7040,.41221E-3,.12538E-3,0
FORESAIL-1 PRIME,2025-276DS,2026-06-19T10:25:32.106432,15.18719306,.00039613,97.4197,243.6644,98.6161,261.5522,0,U,66778,999,3074,.19871349E-3,.4058E-4,0
