ARCTIC WEATHER SATELLITE
1 60543U 24149CD  26170.70594703  .00000553  00000+0  63237-4 0  9996
2 60543  97.6804 241.0997 0003628  99.2984 260.8644 14.89785632 99670
CAPELLA-15 (ACADIA-5)   
1 60544U 24149CE  26170.19987026  .00003109  00000+0  30890-3 0  9992
2 60544  97.6778 243.0545 0004779  76.1249 284.0502 14.92414825100152
HAWK-10B                
1 60545U 24149CF  26170.71027095  .00000919  00000+0  85905-4 0  9996
2 60545  97.6819 245.9310 0006829  85.8605 274.3397 14.96523008100366
ICEYE-X39               
1 60546U 24149CG  26170.47862198  .00002532  00000+0  20881-3 0  9995
2 60546  97.6758 247.4710 0005560 112.6586 247.5226 14.99907357100468
UMBRA-10                
1 60547U 24149CH  26170.50585515  .00013509  00000+0  66528-3 0  9999
2 60547  97.6975 257.7790 0000436  89.5116 270.6167 15.18099205101086
ICEYE-X33               
1 60548U 24149CJ  26170.70256029  .00003777  00000+0  30150-3 0  9995
2 60548  97.7287 249.8293 0001860  88.6295 271.5142 15.00883590100580
ICEYE-X40               
1 60549U 24149CK  26170.70736602  .00001604  00000+0  14092-3 0  9990
2 60549  97.6821 247.1627 0006472  74.8363 285.3575 14.97951623100450
SATELIOT_1              
1 60550U 24149CL  26170.69833794  .00002211  00000+0  19172-3 0  9999
2 60550  97.6759 246.5544 0008402  73.2660 286.9484 14.98080488100449
BRO-14                  
1 60551U 24149CM  26170.66982718  .00000690  00000+0  66314-4 0  9998
2 60551  97.6871 246.4029 0008066  90.6589 269.5556 14.96178768100366
SATELIOT_3              
1 60552U 24149CN  26170.47374631  .00001592  00000+0  13948-3 0  9993
2 60552  97.6815 247.1273 0005928  81.3664 278.8230 14.98060231100425
BRO-15                  
1 60553U 24149CP  26170.71916882  .00001225  00000+0  11372-3 0  9993
2 60553  97.6803 246.0506 0009311  80.7782 279.4492 14.96168721100387
UM5-RIBAT               
1 60554U 24149CQ  26170.67193831  .00002256  00000+0  18096-3 0  9995
2 60554  97.6630 248.4391 0003341  57.8457 302.3091 15.01086604100562
UM5-EOSAT               
1 60555U 24149CR  26170.10445553  .00003677  00000+0  28841-3 0  9992
2 60555  97.6714 248.8179 0008867 108.2132 252.0058 15.01544957100501
LASARSAT                
1 62391U 24247Q   26170.49548139  .00028780  00000+0  57166-3 0  9991
2 62391  44.9733 249.2437 0007938 344.7299  15.3350 15.46491567 83678
CROCUBE                 
1 62394U 24247T   26170.49048578  .00032668  00000+0  60622-3 0  9997
2 62394  44.9701 246.5654 0007740 349.0739  10.9982 15.48397693 83708
TEVEL2-4                
1 63213U 25052D   26170.65994272  .00015774  00000+0  47105-3 0  9992
2 63213  97.3895  67.0555 0004935  98.3582 261.8220 15.34683062 70491
TEVEL2-5                
1 63214U 25052E   26170.68072245  .00014833  00000+0  44561-3 0  9991
2 63214  97.3892  67.0230 0004894  99.9243 260.2552 15.34509052 70491
TEVEL2-6                
1 63215U 25052F   26170.69311061  .00014726  00000+0  44292-3 0  9997
2 63215  97.3899  67.0201 0004758 100.3374 259.8406 15.34473954 70491
TEVEL2-1                
1 63217U 25052H   26170.65777598  .00014677  00000+0  44898-3 0  9993
2 63217  97.3870  66.6064 0004839 108.6625 251.5144 15.33935464 70478
TEVEL2-3                
1 63218U 25052J   26170.65232947  .00014905  00000+0  45510-3 0  9994
2 63218  97.3873  66.6229 0004839 109.1056 251.0711 15.33991826 70478
TEVEL2-2                
1 63219U 25052K   26170.65807553  .00014696  00000+0  44945-3 0  9994
2 63219  97.3874  66.6088 0004844 109.6610 250.5156 15.33944539 70476
TEVEL2-9                
1 63237U 25052AD  26170.70401007  .00013163  00000+0  42841-3 0  9995
2 63237  97.3933  66.0247 0007998 123.7916 236.4088 15.31960885 70413
TEVEL2-7                
1 63238U 25052AE  26170.68007201  .00012773  00000+0  41965-3 0  9993
2 63238  97.3935  65.9159 0008059 124.2734 235.9272 15.31663206 70404
TEVEL2-8                
1 63239U 25052AF  26170.68834909  .00012538  00000+0  41221-3 0  9991
2 63239  97.3937  65.9009 0008075 124.5955 235.6049 15.31647647 70407
FORESAIL-1 PRIME        
1 66778U 25276DS  26170.43439938  .00004058  00000+0  19871-3 0  9990
2 66778  97.4197 243.6644 0003961  98.6161 261.5522 15.18719306 30740
